NORAD_CAT_ID,OBJECT_NAME,OBJECT_TYPE,EPOCH,MEAN_MOTION,ECCENTRICITY,INCLINATION,RA_OF_ASC_NODE,ARG_OF_PERICENTER,MEAN_ANOMALY,BSTAR,MEAN_MOTION_DOT,MEAN_MOTION_DDOT,TLE_LINE0,TLE_LINE1,TLE_LINE2,SEMIMAJOR_AXIS,PERIOD,APOGEE,PERIGEE,DECAYED
52270.0,STARLINK-3804,PAYLOAD,2022-10-15 06:40:40,15.08840617,0.0001473,53.2184,282.0352,67.7425,292.3723,0.00014418,2.007e-05,0.0,0 STARLINK-3804,1 52270U 22041K   22288.27824792  .00002007  00000-0  14418-3 0  9998,2 52270  53.2184 282.0352 0001473  67.7425 292.3723 15.08840617 26959,6917.879,95.438,540.763,538.724,0.0
52270.0,STARLINK-3804,PAYLOAD,2022-10-16 00:09:55,15.08838058,0.0001481,53.2182,278.7649,66.1955,293.9192,-3.0417e-05,-7.72e-06,0.0,0 STARLINK-3804,1 52270U 22041K   22289.00689378 -.00000772  00000-0 -30417-4 0  9996,2 52270  53.2182 278.7649 0001481  66.1955 293.9192 15.08838058 28278,6917.886,95.438,540.776,538.727,0.0
52270.0,STARLINK-3804,PAYLOAD,2022-10-16 06:31:28,15.08830891,0.0001459,53.2177,277.5744,63.7721,296.3421,-9.2608e-05,-1.761e-05,0.0,0 STARLINK-3804,1 52270U 22041K   22289.27186084 -.00001761  00000-0 -92608-4 0  9990,2 52270  53.2177 277.5744 0001459  63.7721 296.3421 15.08830891 27104,6917.908,95.438,540.783,538.764,0.0
52270.0,STARLINK-3804,PAYLOAD,2022-10-16 16:03:47,15.08833724,0.0001569,53.2182,275.7889,61.5969,298.5181,2.7552e-07,-2.84e-06,0.0,0 STARLINK-3804,1 52270U 22041K   22289.66929766 -.00000284  00000-0  27552-6 0  9991,2 52270  53.2182 275.7889 0001569  61.5969 298.5181 15.08833724 27163,6917.9,95.438,540.85,538.679,0.0
52270.0,STARLINK-3804,PAYLOAD,2022-10-17 00:00:42,15.08844013,0.0001393,53.2183,274.3027,63.0118,297.1017,2.9641e-05,1.84e-06,0.0,0 STARLINK-3804,1 52270U 22041K   22290.00048900  .00000184  00000-0  29641-4 0  9990,2 52270  53.2183 274.3027 0001393  63.0118 297.1017 15.08844013 28427,6917.868,95.437,540.697,538.769,0.0
52270.0,STARLINK-3804,PAYLOAD,2022-10-17 07:57:38,15.08841513,0.0001391,53.2178,272.815,59.5252,300.5878,-7.5933000000000015e-06,-4.09e-06,0.0,0 STARLINK-3804,1 52270U 22041K   22290.33169209 -.00000409  00000-0 -75933-5 0  9990,2 52270  53.2178 272.8150 0001391  59.5252 300.5878 15.08841513 27265,6917.876,95.437,540.703,538.778,0.0
52270.0,STARLINK-3804,PAYLOAD,2022-10-18 03:02:16,15.08832563,0.000146,53.2146,269.2452,56.5805,303.5326,0.00010208,1.337e-05,0.0,0 STARLINK-3804,1 52270U 22041K   22291.12657510  .00001337  00000-0  10208-3 0  9996,2 52270  53.2146 269.2452 0001460  56.5805 303.5326 15.08832563 28596,6917.903,95.438,540.778,538.758,0.0
52270.0,STARLINK-3804,PAYLOAD,2022-10-18 07:48:25,15.08830171,0.0001655,53.218,268.3565,67.4026,292.7141,7.7807e-05,9.5e-06,0.0,0 STARLINK-3804,1 52270U 22041K   22291.32529916  .00000950  00000-0  77807-4 0  9995,2 52270  53.2180 268.3565 0001655  67.4026 292.7141 15.08830171 27418,6917.91,95.438,540.92,538.631,0.0
52270.0,STARLINK-3804,PAYLOAD,2022-10-18 15:45:22,15.08827673,0.0001409999999999,53.2171,266.8695,66.0727,294.0412,-4.2661e-05,-9.67e-06,0.0,0 STARLINK-3804,1 52270U 22041K   22291.65650617 -.00000967  00000-0 -42661-4 0  9994,2 52270  53.2171 266.8695 0001410  66.0727 294.0412 15.08827673 27461,6917.918000000002,95.438,540.758,538.808,0.0
52270.0,STARLINK-3804,PAYLOAD,2022-10-19 07:39:12,15.08845785,0.0001643,53.2186,263.8936,78.318,281.7997,-5.4455e-05,-1.155e-05,0.0,0 STARLINK-3804,1 52270U 22041K   22292.31889816 -.00001155  00000-0 -54455-4 0  9997,2 52270  53.2186 263.8936 0001643  78.3180 281.7997 15.08845785 28779,6917.863,95.437,540.864,538.591,0.0
52270.0,STARLINK-3804,PAYLOAD,2022-10-20 07:29:59,15.08851631,0.0001605,53.219,259.4335,70.6173,289.4992,-7.349e-05,-1.458e-05,0.0,0 STARLINK-3804,1 52270U 22041K   22293.31249447 -.00001458  00000-0 -73490-4 0  9994,2 52270  53.2190 259.4335 0001605  70.6173 289.4992 15.08851631 27713,6917.845,95.437,540.82,538.6,0.0
52270.0,STARLINK-3804,PAYLOAD,2022-10-21 04:10:02,15.08811876,0.0001376999999999,53.219,255.5685,71.9192,288.195,-0.00015759,-2.793e-05,0.0,0 STARLINK-3804,1 52270U 22041K   22294.17364476 -.00002793  00000-0 -15759-3 0  9995,2 52270  53.2190 255.5685 0001377  71.9192 288.1950 15.08811876 29055,6917.965999999999,95.439,540.784,538.879,0.0
52270.0,STARLINK-3804,PAYLOAD,2022-10-21 07:20:48,15.08824055,0.0001467,53.2197,254.9731,73.5113,286.6041,-0.00012456,-2.269e-05,0.0,0 STARLINK-3804,1 52270U 22041K   22294.30611830 -.00002269  00000-0 -12456-3 0  9998,2 52270  53.2197 254.9731 0001467  73.5113 286.6041 15.08824055 29077,6917.929,95.439,540.809,538.779,0.0
52270.0,STARLINK-3804,PAYLOAD,2022-10-22 04:00:47,15.08845659,0.0001464,53.2176,251.1116,61.4752,298.6387,6.264600000000001e-05,7.09e-06,0.0,0 STARLINK-3804,1 52270U 22041K   22295.16722037  .00000709  00000-0  62646-4 0  9997,2 52270  53.2176 251.1116 0001464  61.4752 298.6387 15.08845659 29206,6917.863,95.437,540.741,538.715,0.0
52270.0,STARLINK-3804,PAYLOAD,2022-10-22 07:11:33,15.08849455,0.0001498,53.2178,250.5154,69.5286,290.5867,9.7425e-05,1.263e-05,0.0,0 STARLINK-3804,1 52270U 22041K   22295.29969614  .00001263  00000-0  97425-4 0  9994,2 52270  53.2178 250.5154 0001498  69.5286 290.5867 15.08849455 28011,6917.851,95.437,540.753,538.68,0.0
52270.0,STARLINK-3804,PAYLOAD,2022-10-23 03:51:34,15.08832666,0.0001456,53.2186,246.6486,75.1076,285.0077,0.00025922,3.839e-05,0.0,0 STARLINK-3804,1 52270U 22041K   22296.16081982  .00003839  00000-0  25922-3 0  9997,2 52270  53.2186 246.6486 0001456  75.1076 285.0077 15.08832666 29354,6917.903,95.438,540.775,538.761,0.0
52270.0,STARLINK-3804,PAYLOAD,2022-10-23 07:02:21,15.08832785,0.0001467,53.2185,246.0543,74.6316,285.4838,0.00024666,3.639e-05,0.0,0 STARLINK-3804,1 52270U 22041K   22296.29330066  .00003639  00000-0  24666-3 0  9993,2 52270  53.2185 246.0543 0001467  74.6316 285.4838 15.08832785 28163,6917.901999999999,95.438,540.7819999999998,538.753,0.0
52270.0,STARLINK-3804,PAYLOAD,2022-10-23 13:23:53,15.08840558,0.000148,53.2186,244.865,75.0182,285.0974,0.0002791,4.157e-05,0.0,0 STARLINK-3804,1 52270U 22041K   22296.55825488  .00004157  00000-0  27910-3 0  9990,2 52270  53.2186 244.8650 0001480  75.0182 285.0974 15.08840558 29413,6917.879,95.438,540.768,538.72,0.0
52270.0,STARLINK-3804,PAYLOAD,2022-10-24 05:17:44,15.0885054,0.0001561999999999,53.2187,241.8917,78.1138,282.003,4.9301e-05,4.97e-06,0.0,0 STARLINK-3804,1 52270U 22041K   22297.22065090  .00000497  00000-0  49301-4 0  9992,2 52270  53.2187 241.8917 0001562  78.1138 282.0030 15.08850540 28302,6917.848000000001,95.437,540.794,538.633,0.0
52270.0,STARLINK-3804,PAYLOAD,2022-10-25 00:22:24,15.08819338,0.0001266,53.219,238.3244,91.6509,268.4628,-0.00019259,-3.35e-05,0.0,0 STARLINK-3804,1 52270U 22041K   22298.01556118 -.00003350  00000-0 -19259-3 0  9997,2 52270  53.2190 238.3244 0001266  91.6509 268.4628 15.08819338 29631,6917.944,95.439,540.684,538.933,0.0
52270.0,STARLINK-3804,PAYLOAD,2022-10-25 06:43:57,15.08821195,0.0001526,53.2189,237.1343,82.5726,277.54400000000004,-0.00015357,-2.730000000000001e-05,0.0,0 STARLINK-3804,1 52270U 22041K   22298.28052284 -.00002730  00000-0 -15357-3 0  9997,2 52270  53.2189 237.1343 0001526  82.5726 277.5440 15.08821195 28462,6917.938,95.439,540.859,538.747,0.0
52270.0,STARLINK-3804,PAYLOAD,2022-10-25 13:05:28,15.08841992,0.0001202,53.2185,235.9453,79.9868,280.1259,-1.871e-05,-5.86e-06,0.0,0 STARLINK-3804,1 52270U 22041K   22298.54546301 -.00000586  00000-0 -18710-4 0  9998,2 52270  53.2185 235.9453 0001202  79.9868 280.1259 15.08841992 29718,6917.874,95.437,540.571,538.908,0.0
52270.0,STARLINK-3804,PAYLOAD,2022-10-26 04:59:20,15.08835711,0.0001476999999999,53.218,232.9712,78.4342,281.6816,-3.0122e-05,-7.67e-06,0.0,0 STARLINK-3804,1 52270U 22041K   22299.20787061 -.00000767  00000-0 -30122-4 0  9994,2 52270  53.2180 232.9712 0001477  78.4342 281.6816 15.08835711 29811,6917.893,95.438,540.78,538.737,0.0
52270.0,STARLINK-3804,PAYLOAD,2022-10-26 12:56:15,15.08840442,0.0001491,53.2194,231.4837,73.9397,286.1759,6.5931e-05,7.61e-06,0.0,0 STARLINK-3804,1 52270U 22041K   22299.53906615  .00000761  00000-0  65931-4 0  9996,2 52270  53.2194 231.4837 0001491  73.9397 286.1759 15.08840442 29862,6917.879,95.438,540.775,538.7130000000002,0.0
52270.0,STARLINK-3804,PAYLOAD,2022-10-27 04:50:06,15.08841212,0.0001354,53.2175,228.5125,77.6789,282.4355,0.00024078,3.546e-05,0.0,0 STARLINK-3804,1 52270U 22041K   22300.20146451  .00003546  00000-0  24078-3 0  9997,2 52270  53.2175 228.5125 0001354  77.6789 282.4355 15.08841212 28756,6917.877,95.437,540.678,538.805,0.0
52270.0,STARLINK-3804,PAYLOAD,2022-10-28 01:30:07,15.08844846,0.0001406999999999,53.2173,224.6463,73.9244,286.1903,6.8428e-05,8.01e-06,0.0,0 STARLINK-3804,1 52270U 22041K   22301.06258583  .00000801  00000-0  68428-4 0  9991,2 52270  53.2173 224.6463 0001407  73.9244 286.1903 15.08844846 30096,6917.866,95.437,540.7040000000002,538.757,0.0
52270.0,STARLINK-3804,PAYLOAD,2022-10-28 12:37:49,15.08848417,0.0001431,53.2171,222.5655,69.7928,290.3218,6.7533e-05,7.87e-06,0.0,0 STARLINK-3804,1 52270U 22041K   22301.52626205  .00000787  00000-0  67533-4 0  9991,2 52270  53.2171 222.5655 0001431  69.7928 290.3218 15.08848417 28959,6917.855,95.437,540.71,538.73,0.0
52270.0,STARLINK-3804,PAYLOAD,2022-10-29 01:20:54,15.08849195,0.0001355,53.2183,220.1848,76.6212,283.4931,-7.701399999999999e-05,-1.514e-05,0.0,0 STARLINK-3804,1 52270U 22041K   22302.05618086 -.00001514  00000-0 -77014-4 0  9994,2 52270  53.2183 220.1848 0001355  76.6212 283.4931 15.08849195 29037,6917.852,95.437,540.655,538.78,0.0
52270.0,STARLINK-3804,PAYLOAD,2022-10-30 10:43:59,15.08842239,0.0001356,53.2183,213.9408,72.8618,287.2523,-9.8336e-06,-4.44e-06,0.0,0 STARLINK-3804,1 52270U 22041K   22303.44721914 -.00000444  00000-0 -98336-5 0  9995,2 52270  53.2183 213.9408 0001356  72.8618 287.2523 15.08842239 29242,6917.874,95.437,540.677,538.8,0.0
